{"fetched_at":"2026-07-12T05:52:32.048Z","source":"https://celestrak.org/NORAD/elements/gp.php?GROUP=kuiper&FORMAT=JSON","constellation":"kuiper","records":[{"OBJECT_NAME":"KUIPER-00517","OBJECT_ID":"2026-140J","EPOCH":"2026-07-11T13:09:20.110752","CLASSIFICATION_TYPE":"U","MEAN_MOTION":15.38762147,"ECCENTRICITY":0.0010509,"INCLINATION":51.8777,"RA_OF_ASC_NODE":280.7427,"ARG_OF_PERICENTER":277.9717,"MEAN_ANOMALY":82.0077,"EPHEMERIS_TYPE":0,"NORAD_CAT_ID":69600,"ELEMENT_SET_NO":999,"REV_AT_EPOCH":498,"BSTAR":0.0002127,"MEAN_MOTION_DOT":0.000079,"MEAN_MOTION_DDOT":0},{"OBJECT_NAME":"KUIPER-00520","OBJECT_ID":"2026-140K","EPOCH":"2026-07-11T13:40:25.674240","CLASSIFICATION_TYPE":"U","MEAN_MOTION":15.3762857,"ECCENTRICITY":0.0006615,"INCLINATION":51.8837,"RA_OF_ASC_NODE":280.8967,"ARG_OF_PERICENTER":342.1971,"MEAN_ANOMALY":17.8783,"EPHEMERIS_TYPE":0,"NORAD_CAT_ID":69601,"ELEMENT_SET_NO":999,"REV_AT_EPOCH":498,"BSTAR":0.00059962,"MEAN_MOTION_DOT":0.0002218,"MEAN_MOTION_DDOT":0},{"OBJECT_NAME":"KUIPER-00522","OBJECT_ID":"2026-140L","EPOCH":"2026-07-11T11:30:34.282080","CLASSIFICATION_TYPE":"U","MEAN_MOTION":15.38597501,"ECCENTRICITY":0.00133849,"INCLINATION":51.88,"RA_OF_ASC_NODE":281.038,"ARG_OF_PERICENTER":249.8642,"MEAN_ANOMALY":110.0905,"EPHEMERIS_TYPE":0,"NORAD_CAT_ID":69602,"ELEMENT_SET_NO":999,"REV_AT_EPOCH":497,"BSTAR":0.00045973748,"MEAN_MOTION_DOT":0.0001749,"MEAN_MOTION_DDOT":0},{"OBJECT_NAME":"KUIPER-00528","OBJECT_ID":"2026-140M","EPOCH":"2026-07-11T12:10:11.056224","CLASSIFICATION_TYPE":"U","MEAN_MOTION":15.37455088,"ECCENTRICITY":0.00051162,"INCLINATION":51.8778,"RA_OF_ASC_NODE":281.2089,"ARG_OF_PERICENTER":343.9191,"MEAN_ANOMALY":16.1633,"EPHEMERIS_TYPE":0,"NORAD_CAT_ID":69603,"ELEMENT_SET_NO":999,"REV_AT_EPOCH":497,"BSTAR":0.00038458256,"MEAN_MOTION_DOT":0.00013985,"MEAN_MOTION_DDOT":0},{"OBJECT_NAME":"KUIPER-00532","OBJECT_ID":"2026-140N","EPOCH":"2026-07-11T13:56:58.248672","CLASSIFICATION_TYPE":"U","MEAN_MOTION":15.36578796,"ECCENTRICITY":0.0006268,"INCLINATION":51.8806,"RA_OF_ASC_NODE":280.9595,"ARG_OF_PERICENTER":19.3337,"MEAN_ANOMALY":340.7886,"EPHEMERIS_TYPE":0,"NORAD_CAT_ID":69604,"ELEMENT_SET_NO":999,"REV_AT_EPOCH":498,"BSTAR":0.00028023,"MEAN_MOTION_DOT":0.00009791,"MEAN_MOTION_DDOT":0},{"OBJECT_NAME":"KUIPER-00533","OBJECT_ID":"2026-140P","EPOCH":"2026-07-11T13:23:38.599296","CLASSIFICATION_TYPE":"U","MEAN_MOTION":15.37994592,"ECCENTRICITY":0.0007555,"INCLINATION":51.8797,"RA_OF_ASC_NODE":280.81,"ARG_OF_PERICENTER":324.5636,"MEAN_ANOMALY":35.4848,"EPHEMERIS_TYPE":0,"NORAD_CAT_ID":69605,"ELEMENT_SET_NO":999,"REV_AT_EPOCH":498,"BSTAR":-0.0035574,"MEAN_MOTION_DOT":-0.00133268,"MEAN_MOTION_DDOT":0},{"OBJECT_NAME":"KUIPER-00534","OBJECT_ID":"2026-140Q","EPOCH":"2026-07-11T11:23:27.364992","CLASSIFICATION_TYPE":"U","MEAN_MOTION":15.38662919,"ECCENTRICITY":0.00133888,"INCLINATION":51.8818,"RA_OF_ASC_NODE":281.0115,"ARG_OF_PERICENTER":252.9579,"MEAN_ANOMALY":106.9941,"EPHEMERIS_TYPE":0,"NORAD_CAT_ID":69606,"ELEMENT_SET_NO":999,"REV_AT_EPOCH":497,"BSTAR":0.00029780692,"MEAN_MOTION_DOT":0.00011202,"MEAN_MOTION_DDOT":0},{"OBJECT_NAME":"KUIPER-00537","OBJECT_ID":"2026-140R","EPOCH":"2026-07-11T14:23:35.367360","CLASSIFICATION_TYPE":"U","MEAN_MOTION":15.34296234,"ECCENTRICITY":0.0011007,"INCLINATION":51.8811,"RA_OF_ASC_NODE":281.0851,"ARG_OF_PERICENTER":42.884,"MEAN_ANOMALY":317.3002,"EPHEMERIS_TYPE":0,"NORAD_CAT_ID":69607,"ELEMENT_SET_NO":999,"REV_AT_EPOCH":498,"BSTAR":0.00036403,"MEAN_MOTION_DOT":0.00011929,"MEAN_MOTION_DDOT":0},{"OBJECT_NAME":"KUIPER-00538","OBJECT_ID":"2026-140S","EPOCH":"2026-07-11T13:37:08.673600","CLASSIFICATION_TYPE":"U","MEAN_MOTION":15.376795,"ECCENTRICITY":0.0006729,"INCLINATION":51.882,"RA_OF_ASC_NODE":280.8775,"ARG_OF_PERICENTER":330.6202,"MEAN_ANOMALY":29.4406,"EPHEMERIS_TYPE":0,"NORAD_CAT_ID":69608,"ELEMENT_SET_NO":999,"REV_AT_EPOCH":498,"BSTAR":0.0002744,"MEAN_MOTION_DOT":0.00009936,"MEAN_MOTION_DDOT":0},{"OBJECT_NAME":"KUIPER-00540","OBJECT_ID":"2026-140T","EPOCH":"2026-07-11T13:51:43.070112","CLASSIFICATION_TYPE":"U","MEAN_MOTION":15.36919037,"ECCENTRICITY":0.0006626,"INCLINATION":51.883,"RA_OF_ASC_NODE":280.9443,"ARG_OF_PERICENTER":10.8065,"MEAN_ANOMALY":349.3063,"EPHEMERIS_TYPE":0,"NORAD_CAT_ID":69609,"ELEMENT_SET_NO":999,"REV_AT_EPOCH":498,"BSTAR":0.00036378,"MEAN_MOTION_DOT":0.00012977,"MEAN_MOTION_DDOT":0},{"OBJECT_NAME":"KUIPER-00541","OBJECT_ID":"2026-140U","EPOCH":"2026-07-10T21:48:08.076384","CLASSIFICATION_TYPE":"U","MEAN_MOTION":15.38356975,"ECCENTRICITY":0.00083336,"INCLINATION":51.8827,"RA_OF_ASC_NODE":283.9683,"ARG_OF_PERICENTER":308.1236,"MEAN_ANOMALY":51.8999,"EPHEMERIS_TYPE":0,"NORAD_CAT_ID":69610,"ELEMENT_SET_NO":999,"REV_AT_EPOCH":488,"BSTAR":0.0003697798,"MEAN_MOTION_DOT":0.00013847,"MEAN_MOTION_DDOT":0},{"OBJECT_NAME":"KUIPER-00542","OBJECT_ID":"2026-140V","EPOCH":"2026-07-11T13:21:26.293248","CLASSIFICATION_TYPE":"U","MEAN_MOTION":15.38234454,"ECCENTRICITY":0.0007912,"INCLINATION":51.8812,"RA_OF_ASC_NODE":280.8032,"ARG_OF_PERICENTER":300.8666,"MEAN_ANOMALY":59.1543,"EPHEMERIS_TYPE":0,"NORAD_CAT_ID":69611,"ELEMENT_SET_NO":999,"REV_AT_EPOCH":498,"BSTAR":0.00038071,"MEAN_MOTION_DOT":0.0001421,"MEAN_MOTION_DDOT":0},{"OBJECT_NAME":"KUIPER-00543","OBJECT_ID":"2026-140W","EPOCH":"2026-07-11T18:38:47.022432","CLASSIFICATION_TYPE":"U","MEAN_MOTION":15.36828687,"ECCENTRICITY":0.0008152,"INCLINATION":51.8774,"RA_OF_ASC_NODE":280.0144,"ARG_OF_PERICENTER":22.6917,"MEAN_ANOMALY":337.4428,"EPHEMERIS_TYPE":0,"NORAD_CAT_ID":69612,"ELEMENT_SET_NO":999,"REV_AT_EPOCH":501,"BSTAR":0.00071788,"MEAN_MOTION_DOT":0.00025967,"MEAN_MOTION_DDOT":0},{"OBJECT_NAME":"KUIPER-00544","OBJECT_ID":"2026-140X","EPOCH":"2026-07-11T11:53:56.821056","CLASSIFICATION_TYPE":"U","MEAN_MOTION":15.38126834,"ECCENTRICITY":0.00065168,"INCLINATION":51.8799,"RA_OF_ASC_NODE":281.1405,"ARG_OF_PERICENTER":305.8745,"MEAN_ANOMALY":54.1636,"EPHEMERIS_TYPE":0,"NORAD_CAT_ID":69613,"ELEMENT_SET_NO":999,"REV_AT_EPOCH":497,"BSTAR":0.00047072379,"MEAN_MOTION_DOT":0.00017604,"MEAN_MOTION_DDOT":0},{"OBJECT_NAME":"KUIPER-00546","OBJECT_ID":"2026-140Y","EPOCH":"2026-07-11T12:58:01.365312","CLASSIFICATION_TYPE":"U","MEAN_MOTION":15.38810193,"ECCENTRICITY":0.001426,"INCLINATION":51.8783,"RA_OF_ASC_NODE":280.6956,"ARG_OF_PERICENTER":250.2493,"MEAN_ANOMALY":109.6956,"EPHEMERIS_TYPE":0,"NORAD_CAT_ID":69614,"ELEMENT_SET_NO":999,"REV_AT_EPOCH":498,"BSTAR":0.00024596,"MEAN_MOTION_DOT":0.00009228,"MEAN_MOTION_DDOT":0},{"OBJECT_NAME":"KUIPER-00547","OBJECT_ID":"2026-140Z","EPOCH":"2026-07-11T13:18:14.039424","CLASSIFICATION_TYPE":"U","MEAN_MOTION":15.37855649,"ECCENTRICITY":0.0010866,"INCLINATION":51.8825,"RA_OF_ASC_NODE":280.7951,"ARG_OF_PERICENTER":277.5828,"MEAN_ANOMALY":82.3925,"EPHEMERIS_TYPE":0,"NORAD_CAT_ID":69615,"ELEMENT_SET_NO":999,"REV_AT_EPOCH":498,"BSTAR":0.00027228,"MEAN_MOTION_DOT":0.00009924,"MEAN_MOTION_DDOT":0}]}
